{"type": "FeatureCollection", "features": [{"type": "Feature", "properties": {"norad_id": 36828, "name": "BEIDOU-2 IGSO-1 (C06)", "group": "beidou", "lat": -5.422763006087233, "lon": -11.42749864548788, "alt_km": 35597.674035373726, "timestamp": "2025-12-11T10:53:16.151291+00:00", "meta": {"OBJECT_NAME": "BEIDOU-2 IGSO-1 (C06)", "OBJECT_ID": "2010-036A", "EPOCH": "2025-12-10T22:02:21.652224", "MEAN_MOTION": 1.00276584, "ECCENTRICITY": 0.0051188, "INCLINATION": 54.2844, "RA_OF_ASC_NODE": 164.6636, "ARG_OF_PERICENTER": 215.8581, "MEAN_ANOMALY": 137.825, "EPHEMERIS_TYPE": 0, "CLASSIFICATION_TYPE": "U", "NORAD_CAT_ID": 36828, "ELEMENT_SET_NO": 999, "REV_AT_EPOCH": 5620, "BSTAR": 0, "MEAN_MOTION_DOT": -5.7e-07, "MEAN_MOTION_DDOT": 0}, "tle": {"line1": "1 36828U 10036A   25344.91830616 -.00000057  00000+0  00000+0 0  9990", "line2": "2 36828  54.2844 164.6636 0051188 215.8581 137.8250  1.00276584 56203"}}, "geometry": {"type": "Point", "coordinates": [-11.42749864548788, -5.422763006087233]}}, {"type": "Feature", "properties": {"norad_id": 37210, "name": "BEIDOU-2 G4 (C04)", "group": "beidou", "lat": -1.3818555802450874, "lon": 43.91156692122523, "alt_km": 35823.67557319818, "timestamp": "2025-12-11T10:53:16.151318+00:00", "meta": {"OBJECT_NAME": "BEIDOU-2 G4 (C04)", "OBJECT_ID": "2010-057A", "EPOCH": "2025-12-11T04:00:01.931328", "MEAN_MOTION": 1.00271338, "ECCENTRICITY": 0.0010943, "INCLINATION": 3.181, "RA_OF_ASC_NODE": 69.9412, "ARG_OF_PERICENTER": 190.3244, "MEAN_ANOMALY": 39.9467, "EPHEMERIS_TYPE": 0, "CLASSIFICATION_TYPE": "U", "NORAD_CAT_ID": 37210, "ELEMENT_SET_NO": 999, "REV_AT_EPOCH": 5540, "BSTAR": 0, "MEAN_MOTION_DOT": -1.06e-06, "MEAN_MOTION_DDOT": 0}, "tle": {"line1": "1 37210U 10057A   25345.16668902 -.00000106  00000+0  00000+0 0  9999", "line2": "2 37210   3.1810  69.9412 0010943 190.3244  39.9467  1.00271338 55406"}}, "geometry": {"type": "Point", "coordinates": [43.91156692122523, -1.3818555802450874]}}, {"type": "Feature", "properties": {"norad_id": 37256, "name": "BEIDOU-2 IGSO-2 (C07)", "group": "beidou", "lat": 46.263271494513035, "lon": -15.204371554652305, "alt_km": 35933.777303850744, "timestamp": "2025-12-11T10:53:16.151334+00:00", "meta": {"OBJECT_NAME": "BEIDOU-2 IGSO-2 (C07)", "OBJECT_ID": "2010-068A", "EPOCH": "2025-12-03T17:22:36.027840", "MEAN_MOTION": 1.0028872, "ECCENTRICITY": 0.00492449, "INCLINATION": 47.9042, "RA_OF_ASC_NODE": 274.2614, "ARG_OF_PERICENTER": 216.1411, "MEAN_ANOMALY": 310.24, "EPHEMERIS_TYPE": 0, "CLASSIFICATION_TYPE": "U", "NORAD_CAT_ID": 37256, "ELEMENT_SET_NO": 999, "REV_AT_EPOCH": 5483, "BSTAR": 0, "MEAN_MOTION_DOT": -2.25e-06, "MEAN_MOTION_DDOT": 0}, "tle": {"line1": "1 37256U 10068A   25337.72402810 -.00000225  00000+0  00000+0 0  9990", "line2": "2 37256  47.9042 274.2614 0049244 216.1411 310.2400  1.00288720 54834"}}, "geometry": {"type": "Point", "coordinates": [-15.204371554652305, 46.263271494513035]}}, {"type": "Feature", "properties": {"norad_id": 37384, "name": "BEIDOU-2 IGSO-3 (C08)", "group": "beidou", "lat": -42.90148942924316, "lon": 12.559946188977705, "alt_km": 35871.53418442506, "timestamp": "2025-12-11T10:53:16.151349+00:00", "meta": {"OBJECT_NAME": "BEIDOU-2 IGSO-3 (C08)", "OBJECT_ID": "2011-013A", "EPOCH": "2025-12-11T02:02:50.654400", "MEAN_MOTION": 1.00270762, "ECCENTRICITY": 0.0035342, "INCLINATION": 62.1408, "RA_OF_ASC_NODE": 41.9319, "ARG_OF_PERICENTER": 187.1031, "MEAN_ANOMALY": 349.3097, "EPHEMERIS_TYPE": 0, "CLASSIFICATION_TYPE": "U", "NORAD_CAT_ID": 37384, "ELEMENT_SET_NO": 999, "REV_AT_EPOCH": 5377, "BSTAR": 0, "MEAN_MOTION_DOT": -1.95e-06, "MEAN_MOTION_DDOT": 0}, "tle": {"line1": "1 37384U 11013A   25345.08530850 -.00000195  00000+0  00000+0 0  9993", "line2": "2 37384  62.1408  41.9319 0035342 187.1031 349.3097  1.00270762 53775"}}, "geometry": {"type": "Point", "coordinates": [12.559946188977705, -42.90148942924316]}}, {"type": "Feature", "properties": {"norad_id": 37763, "name": "BEIDOU-2 IGSO-4 (C09)", "group": "beidou", "lat": 8.719916857600937, "lon": -18.920239654481094, "alt_km": 35470.62058516918, "timestamp": "2025-12-11T10:53:16.151362+00:00", "meta": {"OBJECT_NAME": "BEIDOU-2 IGSO-4 (C09)", "OBJECT_ID": "2011-038A", "EPOCH": "2025-12-10T12:04:03.489024", "MEAN_MOTION": 1.00284678, "ECCENTRICITY": 0.01490344, "INCLINATION": 54.5829, "RA_OF_ASC_NODE": 167.3658, "ARG_OF_PERICENTER": 230.2355, "MEAN_ANOMALY": 317.2212, "EPHEMERIS_TYPE": 0, "CLASSIFICATION_TYPE": "U", "NORAD_CAT_ID": 37763, "ELEMENT_SET_NO": 999, "REV_AT_EPOCH": 5275, "BSTAR": 0, "MEAN_MOTION_DOT": 3.6e-07, "MEAN_MOTION_DDOT": 0}, "tle": {"line1": "1 37763U 11038A   25344.50281816  .00000036  00000+0  00000+0 0  9995", "line2": "2 37763  54.5829 167.3658 0149034 230.2355 317.2212  1.00284678 52751"}}, "geometry": {"type": "Point", "coordinates": [-18.920239654481094, 8.719916857600937]}}, {"type": "Feature", "properties": {"norad_id": 37948, "name": "BEIDOU-2 IGSO-5 (C10)", "group": "beidou", "lat": 41.201627282520626, "lon": -34.2673918375744, "alt_km": 36211.01245848992, "timestamp": "2025-12-11T10:53:16.151392+00:00", "meta": {"OBJECT_NAME": "BEIDOU-2 IGSO-5 (C10)", "OBJECT_ID": "2011-073A", "EPOCH": "2025-12-10T19:06:36.578016", "MEAN_MOTION": 1.00291414, "ECCENTRICITY": 0.01102762, "INCLINATION": 48.0237, "RA_OF_ASC_NODE": 273.8811, "ARG_OF_PERICENTER": 222.2535, "MEAN_ANOMALY": 323.1484, "EPHEMERIS_TYPE": 0, "CLASSIFICATION_TYPE": "U", "NORAD_CAT_ID": 37948, "ELEMENT_SET_NO": 999, "REV_AT_EPOCH": 5124, "BSTAR": 0, "MEAN_MOTION_DOT": -2.16e-06, "MEAN_MOTION_DDOT": 0}, "tle": {"line1": "1 37948U 11073A   25344.79625669 -.00000216  00000+0  00000+0 0  9999", "line2": "2 37948  48.0237 273.8811 0110276 222.2535 323.1484  1.00291414 51244"}}, "geometry": {"type": "Point", "coordinates": [-34.2673918375744, 41.201627282520626]}}, {"type": "Feature", "properties": {"norad_id": 38091, "name": "BEIDOU-2 G5 (C05)", "group": "beidou", "lat": -2.4531658442255155, "lon": -57.52505928220753, "alt_km": 35732.652461200574, "timestamp": "2025-12-11T10:53:16.151408+00:00", "meta": {"OBJECT_NAME": "BEIDOU-2 G5 (C05)", "OBJECT_ID": "2012-008A", "EPOCH": "2025-12-11T03:31:04.703808", "MEAN_MOTION": 1.00274948, "ECCENTRICITY": 0.0012575, "INCLINATION": 3.1056, "RA_OF_ASC_NODE": 70.7117, "ARG_OF_PERICENTER": 226.7505, "MEAN_ANOMALY": 254.1865, "EPHEMERIS_TYPE": 0, "CLASSIFICATION_TYPE": "U", "NORAD_CAT_ID": 38091, "ELEMENT_SET_NO": 999, "REV_AT_EPOCH": 5048, "BSTAR": 0, "MEAN_MOTION_DOT": 6.2e-07, "MEAN_MOTION_DDOT": 0}, "tle": {"line1": "1 38091U 12008A   25345.14658222  .00000062  00000+0  00000+0 0  9997", "line2": "2 38091   3.1056  70.7117 0012575 226.7505 254.1865  1.00274948 50481"}}, "geometry": {"type": "Point", "coordinates": [-57.52505928220753, -2.4531658442255155]}}, {"type": "Feature", "properties": {"norad_id": 38250, "name": "BEIDOU-2 M3 (C11)", "group": "beidou", "lat": 36.640892175601245, "lon": 100.97213245582265, "alt_km": 21575.99310689246, "timestamp": "2025-12-11T10:53:16.151435+00:00", "meta": {"OBJECT_NAME": "BEIDOU-2 M3 (C11)", "OBJECT_ID": "2012-018A", "EPOCH": "2025-12-09T02:31:53.071968", "MEAN_MOTION": 1.86229533, "ECCENTRICITY": 0.00244707, "INCLINATION": 55.9232, "RA_OF_ASC_NODE": 311.2798, "ARG_OF_PERICENTER": 273.7022, "MEAN_ANOMALY": 86.0063, "EPHEMERIS_TYPE": 0, "CLASSIFICATION_TYPE": "U", "NORAD_CAT_ID": 38250, "ELEMENT_SET_NO": 999, "REV_AT_EPOCH": 9240, "BSTAR": 0, "MEAN_MOTION_DOT": -7.5e-07, "MEAN_MOTION_DDOT": 0}, "tle": {"line1": "1 38250U 12018A   25343.10547537 -.00000075  00000+0  00000+0 0  9990", "line2": "2 38250  55.9232 311.2798 0024470 273.7022  86.0063  1.86229533 92404"}}, "geometry": {"type": "Point", "coordinates": [100.97213245582265, 36.640892175601245]}}, {"type": "Feature", "properties": {"norad_id": 38251, "name": "BEIDOU-2 M4 (C12)", "group": "beidou", "lat": 0.3563521534033778, "lon": 130.17111519129392, "alt_km": 21534.013957409417, "timestamp": "2025-12-11T10:53:16.151462+00:00", "meta": {"OBJECT_NAME": "BEIDOU-2 M4 (C12)", "OBJECT_ID": "2012-018B", "EPOCH": "2025-12-09T00:54:02.015712", "MEAN_MOTION": 1.86229239, "ECCENTRICITY": 0.001562, "INCLINATION": 55.8247, "RA_OF_ASC_NODE": 310.5113, "ARG_OF_PERICENTER": 276.8164, "MEAN_ANOMALY": 82.9941, "EPHEMERIS_TYPE": 0, "CLASSIFICATION_TYPE": "U", "NORAD_CAT_ID": 38251, "ELEMENT_SET_NO": 999, "REV_AT_EPOCH": 9240, "BSTAR": 0, "MEAN_MOTION_DOT": -7.4e-07, "MEAN_MOTION_DDOT": 0}, "tle": {"line1": "1 38251U 12018B   25343.03752333 -.00000074  00000+0  00000+0 0  9994", "line2": "2 38251  55.8247 310.5113 0015620 276.8164  82.9941  1.86229239 92404"}}, "geometry": {"type": "Point", "coordinates": [130.17111519129392, 0.3563521534033778]}}, {"type": "Feature", "properties": {"norad_id": 38775, "name": "BEIDOU-2 M6 (C14)", "group": "beidou", "lat": 11.397537246224354, "lon": 76.81624837517404, "alt_km": 21499.703272296858, "timestamp": "2025-12-11T10:53:16.151478+00:00", "meta": {"OBJECT_NAME": "BEIDOU-2 M6 (C14)", "OBJECT_ID": "2012-050B", "EPOCH": "2025-12-09T06:50:59.454240", "MEAN_MOTION": 1.86230769, "ECCENTRICITY": 0.00110803, "INCLINATION": 56.3755, "RA_OF_ASC_NODE": 69.1821, "ARG_OF_PERICENTER": 345.0946, "MEAN_ANOMALY": 14.8952, "EPHEMERIS_TYPE": 0, "CLASSIFICATION_TYPE": "U", "NORAD_CAT_ID": 38775, "ELEMENT_SET_NO": 999, "REV_AT_EPOCH": 8977, "BSTAR": 0, "MEAN_MOTION_DOT": -4.8e-07, "MEAN_MOTION_DDOT": 0}, "tle": {"line1": "1 38775U 12050B   25343.28541035 -.00000048  00000+0  00000+0 0  9994", "line2": "2 38775  56.3755  69.1821 0011080 345.0946  14.8952  1.86230769 89773"}}, "geometry": {"type": "Point", "coordinates": [76.81624837517404, 11.397537246224354]}}]}